<?xml version="1.0" encoding="UTF-8"?>
<TrainingCenterDatabase
  xmlns="http://www.garmin.com/xmlschemas/TrainingCenterDatabase/v2"
  xmlns:xsi="http://www.w3.org/2001/XMLSchema-instance"
  xmlns:ns3="http://www.garmin.com/xmlschemas/ActivityExtension/v2"
  xsi:schemaLocation="
    http://www.garmin.com/xmlschemas/TrainingCenterDatabase/v2
    http://www.garmin.com/xmlschemas/TrainingCenterDatabasev2.xsd
    http://www.garmin.com/xmlschemas/ActivityExtension/v2
    http://www.garmin.com/xmlschemas/ActivityExtensionv2.xsd">
  <Activities>
    <Activity Sport="Running">
      <Id>2026-04-10T06:00:00Z</Id>
      <Lap StartTime="2026-04-10T06:00:00Z">
        <TotalTimeSeconds>600</TotalTimeSeconds>
        <DistanceMeters>2000.0</DistanceMeters>
        <Calories>160</Calories>
        <AverageHeartRateBpm>
          <Value>152</Value>
        </AverageHeartRateBpm>
        <MaximumHeartRateBpm>
          <Value>166</Value>
        </MaximumHeartRateBpm>
        <Cadence>176</Cadence>
        <Track>
          <Trackpoint>
            <Time>2026-04-10T06:00:00Z</Time>
            <Position>
              <LatitudeDegrees>31.230400</LatitudeDegrees>
              <LongitudeDegrees>121.473700</LongitudeDegrees>
            </Position>
            <AltitudeMeters>4.0</AltitudeMeters>
            <DistanceMeters>0.0</DistanceMeters>
            <HeartRateBpm><Value>140</Value></HeartRateBpm>
            <Cadence>172</Cadence>
            <Extensions>
              <ns3:TPX>
                <ns3:Speed>0.0</ns3:Speed>
                <ns3:Watts>0</ns3:Watts>
              </ns3:TPX>
            </Extensions>
          </Trackpoint>
          <Trackpoint>
            <Time>2026-04-10T06:02:30Z</Time>
            <Position>
              <LatitudeDegrees>31.231100</LatitudeDegrees>
              <LongitudeDegrees>121.474900</LongitudeDegrees>
            </Position>
            <AltitudeMeters>6.0</AltitudeMeters>
            <DistanceMeters>500.0</DistanceMeters>
            <HeartRateBpm><Value>149</Value></HeartRateBpm>
            <Cadence>175</Cadence>
            <Extensions>
              <ns3:TPX>
                <ns3:Speed>3.33</ns3:Speed>
                <ns3:Watts>218</ns3:Watts>
              </ns3:TPX>
            </Extensions>
          </Trackpoint>
          <Trackpoint>
            <Time>2026-04-10T06:05:00Z</Time>
            <Position>
              <LatitudeDegrees>31.231700</LatitudeDegrees>
              <LongitudeDegrees>121.476300</LongitudeDegrees>
            </Position>
            <AltitudeMeters>8.5</AltitudeMeters>
            <DistanceMeters>1000.0</DistanceMeters>
            <HeartRateBpm><Value>153</Value></HeartRateBpm>
            <Cadence>177</Cadence>
            <Extensions>
              <ns3:TPX>
                <ns3:Speed>3.33</ns3:Speed>
                <ns3:Watts>224</ns3:Watts>
              </ns3:TPX>
            </Extensions>
          </Trackpoint>
          <Trackpoint>
            <Time>2026-04-10T06:07:30Z</Time>
            <Position>
              <LatitudeDegrees>31.232400</LatitudeDegrees>
              <LongitudeDegrees>121.477600</LongitudeDegrees>
            </Position>
            <AltitudeMeters>9.0</AltitudeMeters>
            <DistanceMeters>1500.0</DistanceMeters>
            <HeartRateBpm><Value>158</Value></HeartRateBpm>
            <Cadence>178</Cadence>
            <Extensions>
              <ns3:TPX>
                <ns3:Speed>3.33</ns3:Speed>
                <ns3:Watts>231</ns3:Watts>
              </ns3:TPX>
            </Extensions>
          </Trackpoint>
          <Trackpoint>
            <Time>2026-04-10T06:10:00Z</Time>
            <Position>
              <LatitudeDegrees>31.233000</LatitudeDegrees>
              <LongitudeDegrees>121.478900</LongitudeDegrees>
            </Position>
            <AltitudeMeters>7.5</AltitudeMeters>
            <DistanceMeters>2000.0</DistanceMeters>
            <HeartRateBpm><Value>166</Value></HeartRateBpm>
            <Cadence>179</Cadence>
            <Extensions>
              <ns3:TPX>
                <ns3:Speed>3.33</ns3:Speed>
                <ns3:Watts>236</ns3:Watts>
              </ns3:TPX>
            </Extensions>
          </Trackpoint>
        </Track>
      </Lap>
      <Creator xsi:type="Device_t">
        <Name>COROS PACE 3</Name>
        <UnitId>123456789</UnitId>
        <ProductID>0</ProductID>
      </Creator>
    </Activity>
  </Activities>
</TrainingCenterDatabase>
